COSMOS 2534 [GLONASS-M] 
1 44299U 19030A   26189.59045339  .00000126  00000+0  00000+0 0  9992
2 44299  64.3704 191.8956 0013516 275.0129  83.9992  2.13102187 55370
BEIDOU-3 IGSO-2         
1 44337U 19035A   26190.30743966 -.00000077  00000+0  00000+0 0  9998
2 44337  55.2505 158.6691 0039601 216.3164 141.7794  1.00259480 25888
NAVSTAR 78 (USA 293)    
1 44506U 19056A   26189.84169353 -.00000075  00000+0  00000+0 0  9996
2 44506  55.6256 330.2832 0063162 198.0526 345.4471  2.00569904 50503
BEIDOU-3 M24            
1 44542U 19061A   26189.72060771  .00000122  00000+0  00000+0 0  9995
2 44542  54.3976 182.0017 0008596 359.4835   0.5254  1.86229304 46190
BEIDOU-3 M23            
1 44543U 19061B   26189.43788944  .00000122  00000+0  00000+0 0  9993
2 44543  54.3960 181.9796 0005860 339.6838 102.2392  1.86227401 46199
EUTELSAT 5 WEST B       
1 44624U 19067A   26190.29975376 -.00000029  00000+0  00000+0 0  9999
2 44624   0.0640 344.6572 0003076 125.3410 280.1477  1.00271310 24656
BEIDOU-3 M22            
1 44793U 19078A   26186.33900275 -.00000058  00000+0  00000+0 0  9996
2 44793  53.9186 299.1896 0005914  49.8831 310.1966  1.86227646 44980
BEIDOU-3 M21            
1 44794U 19078B   26189.16367219 -.00000063  00000+0  00000+0 0  9992
2 44794  53.8889 299.0507 0003790  48.5315 311.5256  1.86228045 45040
COSMOS 2544 [GLONASS-M] 
1 44850U 19088A   26189.14609390 -.00000022  00000+0  00000+0 0  9998
2 44850  65.5763  73.0319 0012505 255.7157 104.2060  2.13103113 51164
BEIDOU-3 M19            
1 44864U 19090A   26190.26753905 -.00000047  00000+0  00000+0 0  9990
2 44864  56.5775  62.0617 0016984 297.5653 280.0700  1.86231620 44644
BEIDOU-3 M20            
1 44865U 19090B   26189.59078983 -.00000046  00000+0  00000+0 0  9990
2 44865  56.5782  62.1188 0014984 312.3282 261.1678  1.86231598 44614
BEIDOU-3 G2             
1 45344U 20017A   26190.01439480 -.00000129  00000+0  00000+0 0  9998
2 45344   2.9054  47.6391 0002272  56.0849 268.4866  1.00270249 23478
COSMOS 2545 [GLONASS-M] 
1 45358U 20018A   26188.87178822 -.00000052  00000+0  00000+0 0  9990
2 45358  64.3418 311.6924 0009213 230.0449 129.8870  2.13102711 49103
BEIDOU-3 G3             
1 45807U 20040A   26190.30561965 -.00000342  00000+0  00000+0 0  9991
2 45807   2.4980  67.4798 0001928 331.5604 108.7363  1.00267301 22295
NAVSTAR 79 (USA 304)    
1 45854U 20041A   26187.18030691 -.00000055  00000+0  00000+0 0  9994
2 45854  56.6823  28.2076 0064724 204.5515 154.8185  2.00558250 44410
GALAXY 30 (G-30)        
1 46114U 20056C   26190.04507495  .00000051  00000+0  00000+0 0  9995
2 46114   0.0134  57.9594 0002051  51.8258  68.4325  1.00270770 21513
COSMOS 2547 [GLONASS-K] 
1 46805U 20075A   26189.53074253  .00000126  00000+0  00000+0 0  9999
2 46805  64.6013 191.7631 0009456 239.7730 120.1659  2.13100166 44369
NAVSTAR 80 (USA 309)    
1 46826U 20078A   26190.29457378  .00000111  00000+0  00000+0 0  9997
2 46826  53.9780 209.8822 0074392 207.6620 217.3910  2.00564849 41959
NAVSTAR 81 (USA 319)    
1 48859U 21054A   26190.24001956 -.00000077  00000+0  00000+0 0  9994
2 48859  55.1631 331.5740 0026299 228.4962 343.5157  2.00567437 37193
QZS-1R (MICHIBIKI-1R)   
1 49336U 21096A   26189.63484497 -.00000271  00000+0  00000+0 0  9993
2 49336  37.5026  79.2668 0755133 272.1320 296.0484  1.00247751 17221
GSAT0223 (GALILEO 27)   
1 49809U 21116A   26188.53054281 -.00000072  00000+0  00000+0 0  9992
2 49809  57.1541 341.1270 0002091 192.1025 172.9175  1.70476066 28532
GSAT0224 (GALILEO 28)   
1 49810U 21116B   26188.35016565 -.00000071  00000+0  00000+0 0  9996
2 49810  57.1546 341.1306 0001631 175.8676 191.0805  1.70476148 28553
COSMOS 2557 [GLONASS-K] 
1 52984U 22075A   26188.28712434 -.00000050  00000+0  00000+0 0  9994
2 52984  64.2857 313.7776 0010595 272.6042  87.2866  2.13102498 31145
COSMOS 2559 [GLONASS-K] 
1 54031U 22130A   26189.98384888 -.00000057  00000+0  00000+0 0  9994
2 54031  64.2570 313.8003 0012993 180.3657 179.6426  2.13101645 29156
COSMOS 2564 [GLONASS-M] 
1 54377U 22161A   26189.82701961  .00000127  00000+0  00000+0 0  9996
2 54377  64.7436 191.9933 0012253 225.0747 134.8592  2.13101979 28097
NAVSTAR 82 (USA 343)    
1 55268U 23009A   26189.14195422  .00000071  00000+0  00000+0 0  9990
2 55268  55.1237 147.6955 0006209 319.8911 217.8197  2.00570045 25664
BEIDOU-3 G4             
1 56564U 23066A   26190.63794542 -.00000268  00000+0  00000+0 0  9996
2 56564   0.4653 337.1844 0004854 187.5205 132.5504  1.00274624 11610
NVS-01 (IRNSS-1J)       
1 56759U 23076A   26190.30934634 -.00000320  00000+0  00000+0 0  9994
2 56759   2.1167 243.3660 0003393   7.4497 277.3306  1.00267666 11334
COSMOS 2569 [GLONASS-K2]
1 57517U 23114A   26189.37005777 -.00000024  00000+0  00000+0 0  9993
2 57517  65.3140  71.9064 0009905 296.3420  63.6175  2.13103725 22716
BEIDOU-3 M28            
1 58654U 23207A   26189.77762795 -.00000048  00000+0  00000+0 0  9999
2 58654  55.7718  61.5748 0002610   1.3518 358.7096  1.86229669 17242
BEIDOU-3 M26            
1 58655U 23207B   26190.11208069 -.00000048  00000+0  00000+0 0  9999
2 58655  55.7743  61.5501 0002208 324.1818  35.8641  1.86229653 17231
