OBJECT_NAME,OBJECT_ID,EPOCH,MEAN_MOTION,ECCENTRICITY,INCLINATION,RA_OF_ASC_NODE,ARG_OF_PERICENTER,MEAN_ANOMALY,EPHEMERIS_TYPE,CLASSIFICATION_TYPE,NORAD_CAT_ID,ELEMENT_SET_NO,REV_AT_EPOCH,BSTAR,MEAN_MOTION_DOT,MEAN_MOTION_DDOT
COSMOS 2534 (758),2019-030A,2026-07-08T14:10:15.172896,2.13102187,.00135164,64.3704,191.8956,275.0129,83.9992,0,U,44299,999,5537,0,.126E-5,0
BEIDOU-3 IGSO-2 (C39),2019-035A,2026-07-09T07:22:42.786624,1.00259480,.00396018,55.2505,158.6691,216.3164,141.7794,0,U,44337,999,2588,0,-.77E-6,0
GPS BIII-2  (PRN 18),2019-056A,2026-07-08T20:12:02.320992,2.00569904,.00631626,55.6256,330.2832,198.0526,345.4471,0,U,44506,999,5050,0,-.75E-6,0
BEIDOU-3 M24 (C46),2019-061A,2026-07-08T17:17:40.506144,1.86229304,.00085969,54.3976,182.0017,359.4835,0.5254,0,U,44542,999,4619,0,.122E-5,0
BEIDOU-3 M23 (C45),2019-061B,2026-07-08T10:30:33.647616,1.86227401,.00058609,54.3960,181.9796,339.6838,102.2392,0,U,44543,999,4619,0,.122E-5,0
EUTELSAT 5 WEST B (EGNOS/PRN 121),2019-067A,2026-07-09T07:11:38.724864,1.00271310,.00030765,0.0640,344.6572,125.3410,280.1477,0,U,44624,999,2465,0,-.29E-6,0
BEIDOU-3 M22 (C44),2019-078A,2026-07-05T08:08:09.837600,1.86227646,.00059141,53.9186,299.1896,49.8831,310.1966,0,U,44793,999,4498,0,-.58E-6,0
BEIDOU-3 M21 (C43),2019-078B,2026-07-08T03:55:41.277216,1.86228045,.00037906,53.8889,299.0507,48.5315,311.5256,0,U,44794,999,4504,0,-.63E-6,0
COSMOS 2544 (759),2019-088A,2026-07-08T03:30:22.512960,2.13103113,.00125059,65.5763,73.0319,255.7157,104.2060,0,U,44850,999,5116,0,-.22E-6,0
BEIDOU-3 M19 (C41),2019-090A,2026-07-09T06:25:15.373920,1.86231620,.00169841,56.5775,62.0617,297.5653,280.0700,0,U,44864,999,4464,0,-.47E-6,0
BEIDOU-3 M20 (C42),2019-090B,2026-07-08T14:10:44.241312,1.86231598,.0014984,56.5782,62.1188,312.3282,261.1678,0,U,44865,999,4461,0,-.46E-6,0
BEIDOU-3 G2 (C60),2020-017A,2026-07-09T00:20:43.710720,1.00270249,.00022727,2.9054,47.6391,56.0849,268.4866,0,U,45344,999,2347,0,-.129E-5,0
COSMOS 2545 (760),2020-018A,2026-07-07T20:55:22.502208,2.13102711,.00092133,64.3418,311.6924,230.0449,129.8870,0,U,45358,999,4910,0,-.52E-6,0
BEIDOU-3 G3 (C61),2020-040A,2026-07-09T07:20:05.537760,1.00267301,.00019286,2.4980,67.4798,331.5604,108.7363,0,U,45807,999,2229,0,-.342E-5,0
GPS BIII-3  (PRN 23),2020-041A,2026-07-06T04:19:38.517024,2.00558250,.00647244,56.6823,28.2076,204.5515,154.8185,0,U,45854,999,4441,0,-.55E-6,0
GALAXY 30 (WAAS/PRN 135),2020-056C,2026-07-09T01:04:54.475680,1.00270770,.0002051,0.0134,57.9594,51.8258,68.4325,0,U,46114,999,2151,0,.51E-6,0
COSMOS 2547 (705K),2020-075A,2026-07-08T12:44:16.154592,2.13100166,.0009456,64.6013,191.7631,239.7730,120.1659,0,U,46805,999,4436,0,.126E-5,0
GPS BIII-4  (PRN 14),2020-078A,2026-07-09T07:04:11.174592,2.00564849,.00743929,53.9780,209.8822,207.6620,217.3910,0,U,46826,999,4195,0,.111E-5,0
GPS BIII-5  (PRN 11),2021-054A,2026-07-09T05:45:37.689984,2.00567437,.00262999,55.1631,331.5740,228.4962,343.5157,0,U,48859,999,3719,0,-.77E-6,0
QZS-1R (QZSS/PRN 196),2021-096A,2026-07-08T15:14:10.605408,1.00247751,.07551338,37.5026,79.2668,272.1320,296.0484,0,U,49336,999,1722,0,-.271E-5,0
GSAT0223 (GALILEO 27),2021-116A,2026-07-07T12:43:58.898784,1.70476066,.00020918,57.1541,341.1270,192.1025,172.9175,0,U,49809,999,2853,0,-.72E-6,0
GSAT0224 (GALILEO 28),2021-116B,2026-07-07T08:24:14.312160,1.70476148,.00016312,57.1546,341.1306,175.8676,191.0805,0,U,49810,999,2855,0,-.71E-6,0
COSMOS 2557 (706K),2022-075A,2026-07-07T06:53:27.542976,2.13102498,.00105957,64.2857,313.7776,272.6042,87.2866,0,U,52984,999,3114,0,-.5E-6,0
COSMOS 2559 (707K),2022-130A,2026-07-08T23:36:44.543232,2.13101645,.00129932,64.2570,313.8003,180.3657,179.6426,0,U,54031,999,2915,0,-.57E-6,0
COSMOS 2564 (761),2022-161A,2026-07-08T19:50:54.494304,2.13101979,.00122533,64.7436,191.9933,225.0747,134.8592,0,U,54377,999,2809,0,.127E-5,0
GPS BIII-6  (PRN 28),2023-009A,2026-07-08T03:24:24.844608,2.00570045,.00062097,55.1237,147.6955,319.8911,217.8197,0,U,55268,999,2566,0,.71E-6,0
BEIDOU-3 G4 (C62),2023-066A,2026-07-09T15:18:38.484288,1.00274624,.0004854,0.4653,337.1844,187.5205,132.5504,0,U,56564,999,1161,0,-.268E-5,0
NVS-01 (IRNSS-1J),2023-076A,2026-07-09T07:25:27.523776,1.00267666,.00033937,2.1167,243.3660,7.4497,277.3306,0,U,56759,999,1133,0,-.32E-5,0
COSMOS 2569 (703K),2023-114A,2026-07-08T08:52:52.991328,2.13103725,.00099053,65.3140,71.9064,296.3420,63.6175,0,U,57517,999,2271,0,-.24E-6,0
BEIDOU-3 M28 (C50),2023-207A,2026-07-08T18:39:47.054880,1.86229669,.00026103,55.7718,61.5748,1.3518,358.7096,0,U,58654,999,1724,0,-.48E-6,0
BEIDOU-3 M26 (C48),2023-207B,2026-07-09T02:41:23.771616,1.86229653,.00022086,55.7743,61.5501,324.1818,35.8641,0,U,58655,999,1723,0,-.48E-6,0
